STARLINK-3068           
1 49154U 21082AA  26152.02121746 -.00000462  00000+0 -31626-4 0  9990
2 49154  70.0010  65.3906 0002739 261.5144  98.5704 14.97517052260008
STARLINK-3060           
1 49155U 21082AB  26152.14676832  .00000316  00000+0  34316-4 0  9990
2 49155  70.0007  44.0233 0002928 266.4732  93.6092 14.98328275260542
STARLINK-3085           
1 49156U 21082AC  26152.12590580 -.00001195  00000+0 -92378-4 0  9994
2 49156  70.0002  44.0801 0003114 269.9007  90.1795 14.98325917260542
STARLINK-3051           
1 49157U 21082AD  26152.15410496  .00007515  00000+0  52835-3 0  9998
2 49157  69.9991  59.1151 0003153 187.4703 172.6414 15.05461868260192
STARLINK-3083           
1 49158U 21082AE  26151.80131660  .00124876  00000+0  82646-3 0  9996
2 49158  69.9618 299.6581 0002395 251.5434 108.5504 15.75019224263090
STARLINK-3056           
1 49159U 21082AF  26152.20565056  .00000128  00000+0  18547-4 0  9995
2 49159  70.0008  83.8854 0002823 259.7441 100.3400 14.98325195259582
STARLINK-3095           
1 49160U 21082AG  26152.25989580 -.00001015  00000+0 -77294-4 0  9996
2 49160  70.0000  83.7294 0003107 262.5038  97.5768 14.98322854259564
STARLINK-3080           
1 49161U 21082AH  26151.99702001  .00000414  00000+0  42478-4 0  9994
2 49161  70.0001  84.3885 0003145 251.9750 108.1067 14.98330509259538
STARLINK-3088           
1 49163U 21082AK  26152.00869347 -.00000362  00000+0 -23119-4 0  9991
2 49163  70.0017  65.4344 0002593 253.6350 106.4523 14.97516116260087
STARLINK-3106           
1 49164U 21082AL  26152.15534585 -.00000046  00000+0  39051-5 0  9992
2 49164  70.0004  64.0090 0002679 269.4791  90.6061 14.98331517260134
STARLINK-3052           
1 49165U 21082AM  26152.05543731  .00000133  00000+0  18900-4 0  9990
2 49165  70.0001  84.2763 0002990 265.4054  94.6764 14.98330342259662
STARLINK-3089           
1 49166U 21082AN  26152.20490258 -.00000315  00000+0 -19033-4 0  9995
2 49166  70.0008  64.9426 0002786 265.4151  94.6689 14.97520053260153
STARLINK-3054           
1 49167U 21082AP  26152.24736979  .00001583  00000+0  14040-3 0  9991
2 49167  70.0000  83.7715 0003144 271.2088  88.8710 14.98327450259693
STARLINK-3046           
1 49169U 21082AR  26152.15117901 -.00000812  00000+0 -60289-4 0  9994
2 49169  70.0007  64.0317 0002737 263.4016  96.6832 14.98324700258970
STARLINK-3107           
1 49171U 21082AT  26152.18841088  .00025251  00000+0  13911-2 0  9990
2 49171  69.9931  72.7241 0004334 188.2139 171.8958 15.13937366259920
STARLINK-3045           
1 49173U 21082AV  26152.20541421 -.00000114  00000+0 -18052-5 0  9990
2 49173  70.0007  63.8783 0002492 266.2986  93.7888 14.98330515258985
STARLINK-3087           
1 49175U 21082AX  26152.16806569 -.00002311  00000+0 -19003-3 0  9990
2 49175  70.0002  65.1677 0002662 259.5675 100.5184 14.97507443258945
STARLINK-3069           
1 49176U 21082AY  26152.02159518 -.00000542  00000+0 -37679-4 0  9995
2 49176  70.0011  44.3444 0002628 260.9536  99.1325 14.98329303259445
STARLINK-3103           
1 49177U 21082AZ  26152.10923174 -.00000938  00000+0 -70832-4 0  9999
2 49177  70.0005  44.1359 0002992 269.3041  90.7775 14.98323260260657
STARLINK-3086           
1 49178U 21082BA  26152.20147630 -.00000893  00000+0 -67037-4 0  9999
2 49178  70.0004  83.8821 0002661 257.2649 102.8212 14.98333423259644
STARLINK-3043           
1 49179U 21082BB  26152.02994395 -.00000300  00000+0 -17345-4 0  9998
2 49179  70.0005  44.3187 0002458 263.3289  96.7591 14.98325219259448
STARLINK-3059           
1 49181U 21082BD  26151.98451662 -.00003365  00000+0 -27442-3 0  9992
2 49181  69.9995  84.4427 0003198 269.1740  90.9052 14.98319098259644
ONEWEB-0292             
1 49186U 21083A   26152.01590442  .00000230  00000+0  59470-3 0  9995
2 49186  87.8933 323.4612 0001983  91.3403 268.7954 13.13468045228806
ONEWEB-0303             
1 49187U 21083B   26151.99037956  .00000057  00000+0  11188-3 0  9999
2 49187  87.9161 338.6804 0001998  89.6763 270.4598 13.18686330227848
ONEWEB-0306             
1 49188U 21083C   26151.98026034  .00000024  00000+0  27195-4 0  9994
2 49188  87.9168 338.6691 0001622  92.9135 267.2183 13.18686374227880
ONEWEB-0307             
1 49189U 21083D   26152.00998685  .00000328  00000+0  86426-3 0  9997
2 49189  87.8944 323.4576 0001900  93.2240 266.9107 13.13469070228808
ONEWEB-0320             
1 49190U 21083E   26152.00048474  .00000102  00000+0  22671-3 0  9993
2 49190  87.9155 338.6848 0001779  89.5668 270.5668 13.18687639227845
ONEWEB-0321             
1 49191U 21083F   26152.29212232  .00000090  00000+0  18938-3 0  9997
2 49191  87.9182 277.6034 0001622 100.0564 260.0752 13.20770895234730
ONEWEB-0322             
1 49192U 21083G   26152.00575074  .00000347  00000+0  91448-3 0  9995
2 49192  87.8938 323.4594 0001434  85.6170 274.5123 13.13468974228797
ONEWEB-0324             
1 49193U 21083H   26151.97348515  .00002373  00000+0  59818-2 0  9994
2 49193  87.9159 338.6750 0001687  93.7323 266.4002 13.18708660227863
