OBJECT_NAME,OBJECT_ID,EPOCH,MEAN_MOTION,ECCENTRICITY,INCLINATION,RA_OF_ASC_NODE,ARG_OF_PERICENTER,MEAN_ANOMALY,EPHEMERIS_TYPE,CLASSIFICATION_TYPE,NORAD_CAT_ID,ELEMENT_SET_NO,REV_AT_EPOCH,BSTAR,MEAN_MOTION_DOT,MEAN_MOTION_DDOT
STARLINK-3068,2021-082AA,2026-06-01T00:30:33.188544,14.97517052,.00027399,70.0010,65.3906,261.5144,98.5704,0,U,49154,999,26000,-.31625969E-4,-.462E-5,0
STARLINK-3060,2021-082AB,2026-06-01T03:31:20.782848,14.98328275,.00029284,70.0007,44.0233,266.4732,93.6092,0,U,49155,999,26054,.34316035E-4,.316E-5,0
STARLINK-3085,2021-082AC,2026-06-01T03:01:18.261120,14.98325917,.00031144,70.0002,44.0801,269.9007,90.1795,0,U,49156,999,26054,-.9237778E-4,-.1195E-4,0
STARLINK-3051,2021-082AD,2026-06-01T03:41:54.668544,15.05461868,.00031534,69.9991,59.1151,187.4703,172.6414,0,U,49157,999,26019,.5283474E-3,.7515E-4,0
STARLINK-3083,2021-082AE,2026-05-31T19:13:53.754240,15.75019224,.0002395,69.9618,299.6581,251.5434,108.5504,0,U,49158,999,26309,.82646462E-3,.124876E-2,0
STARLINK-3056,2021-082AF,2026-06-01T04:56:08.208384,14.98325195,.00028234,70.0008,83.8854,259.7441,100.3400,0,U,49159,999,25958,.18547194E-4,.128E-5,0
STARLINK-3095,2021-082AG,2026-06-01T06:14:14.997120,14.98322854,.00031075,70.0000,83.7294,262.5038,97.5768,0,U,49160,999,25956,-.77293855E-4,-.1015E-4,0
STARLINK-3080,2021-082AH,2026-05-31T23:55:42.528864,14.98330509,.00031457,70.0001,84.3885,251.9750,108.1067,0,U,49161,999,25953,.42478393E-4,.414E-5,0
STARLINK-3088,2021-082AK,2026-06-01T00:12:31.115808,14.97516116,.00025935,70.0017,65.4344,253.6350,106.4523,0,U,49163,999,26008,-.23119083E-4,-.362E-5,0
STARLINK-3106,2021-082AL,2026-06-01T03:43:41.881440,14.98331517,.00026791,70.0004,64.0090,269.4791,90.6061,0,U,49164,999,26013,.3905052E-5,-.46E-6,0
STARLINK-3052,2021-082AM,2026-06-01T01:19:49.783584,14.98330342,.00029907,70.0001,84.2763,265.4054,94.6764,0,U,49165,999,25966,.18900273E-4,.133E-5,0
STARLINK-3089,2021-082AN,2026-06-01T04:55:03.582912,14.97520053,.00027868,70.0008,64.9426,265.4151,94.6689,0,U,49166,999,26015,-.19032727E-4,-.315E-5,0
STARLINK-3054,2021-082AP,2026-06-01T05:56:12.749856,14.98327450,.00031449,70.0000,83.7715,271.2088,88.8710,0,U,49167,999,25969,.14040055E-3,.1583E-4,0
STARLINK-3046,2021-082AR,2026-06-01T03:37:41.866464,14.98324700,.00027375,70.0007,64.0317,263.4016,96.6832,0,U,49169,999,25897,-.60289442E-4,-.812E-5,0
STARLINK-3107,2021-082AT,2026-06-01T04:31:18.700032,15.13937366,.00043344,69.9931,72.7241,188.2139,171.8958,0,U,49171,999,25992,.13911314E-2,.25251E-3,0
STARLINK-3045,2021-082AV,2026-06-01T04:55:47.787744,14.98330515,.00024924,70.0007,63.8783,266.2986,93.7888,0,U,49173,999,25898,-.1805248E-5,-.114E-5,0
STARLINK-3087,2021-082AX,2026-06-01T04:02:00.875616,14.97507443,.00026624,70.0002,65.1677,259.5675,100.5184,0,U,49175,999,25894,-.19003058E-3,-.2311E-4,0
STARLINK-3069,2021-082AY,2026-06-01T00:31:05.823552,14.98329303,.0002628,70.0011,44.3444,260.9536,99.1325,0,U,49176,999,25944,-.37679046E-4,-.542E-5,0
STARLINK-3103,2021-082AZ,2026-06-01T02:37:17.622336,14.98323260,.00029922,70.0005,44.1359,269.3041,90.7775,0,U,49177,999,26065,-.7083226E-4,-.938E-5,0
STARLINK-3086,2021-082BA,2026-06-01T04:50:07.552320,14.98333423,.00026619,70.0004,83.8821,257.2649,102.8212,0,U,49178,999,25964,-.67037202E-4,-.893E-5,0
STARLINK-3043,2021-082BB,2026-06-01T00:43:07.157280,14.98325219,.0002458,70.0005,44.3187,263.3289,96.7591,0,U,49179,999,25944,-.17344615E-4,-.3E-5,0
STARLINK-3059,2021-082BD,2026-05-31T23:37:42.235968,14.98319098,.00031987,69.9995,84.4427,269.1740,90.9052,0,U,49181,999,25964,-.27442231E-3,-.3365E-4,0
ONEWEB-0292,2021-083A,2026-06-01T00:22:54.141888,13.13468045,.00019836,87.8933,323.4612,91.3403,268.7954,0,U,49186,999,22880,.59470481E-3,.23E-5,0
ONEWEB-0303,2021-083B,2026-05-31T23:46:08.793984,13.18686330,.00019983,87.9161,338.6804,89.6763,270.4598,0,U,49187,999,22784,.11188438E-3,.57E-6,0
ONEWEB-0306,2021-083C,2026-05-31T23:31:34.493376,13.18686374,.0001622,87.9168,338.6691,92.9135,267.2183,0,U,49188,999,22788,.2719479E-4,.24E-6,0
ONEWEB-0307,2021-083D,2026-06-01T00:14:22.863840,13.13469070,.00019005,87.8944,323.4576,93.2240,266.9107,0,U,49189,999,22880,.8642644E-3,.328E-5,0
ONEWEB-0320,2021-083E,2026-06-01T00:00:41.881536,13.18687639,.00017796,87.9155,338.6848,89.5668,270.5668,0,U,49190,999,22784,.22670574E-3,.102E-5,0
ONEWEB-0321,2021-083F,2026-06-01T07:00:39.368448,13.20770895,.00016228,87.9182,277.6034,100.0564,260.0752,0,U,49191,999,23473,.18937651E-3,.9E-6,0
ONEWEB-0322,2021-083G,2026-06-01T00:08:16.863936,13.13468974,.00014343,87.8938,323.4594,85.6170,274.5123,0,U,49192,999,22879,.91448171E-3,.347E-5,0
ONEWEB-0324,2021-083H,2026-05-31T23:21:49.116960,13.18708660,.00016879,87.9159,338.6750,93.7323,266.4002,0,U,49193,999,22786,.59818246E-2,.2373E-4,0
